[{"OBJECT_NAME":"FENGYUN 3F","OBJECT_ID":"2023-111A","EPOCH":"2026-03-07T15:28:01.564320","MEAN_MOTION":14.1991894,"ECCENTRICITY":0.00012865,"INCLINATION":98.6932,"RA_OF_ASC_NODE":138.5105,"ARG_OF_PERICENTER":80.7747,"MEAN_ANOMALY":279.3575,"EPHEMERIS_TYPE":0,"CLASSIFICATION_TYPE":"U","NORAD_CAT_ID":57490,"ELEMENT_SET_NO":999,"REV_AT_EPOCH":13445,"BSTAR":6.7406312e-5,"MEAN_MOTION_DOT":1.0e-6,"MEAN_MOTION_DDOT":0},{"OBJECT_NAME":"METEOR 2-1 DEB","OBJECT_ID":"1975-064F","EPOCH":"2026-03-05T19:21:43.513632","MEAN_MOTION":14.28402345,"ECCENTRICITY":0.00072983,"INCLINATION":81.2671,"RA_OF_ASC_NODE":102.6998,"ARG_OF_PERICENTER":50.0105,"MEAN_ANOMALY":310.1716,"EPHEMERIS_TYPE":0,"CLASSIFICATION_TYPE":"U","NORAD_CAT_ID":57492,"ELEMENT_SET_NO":999,"REV_AT_EPOCH":38822,"BSTAR":0.0027882182,"MEAN_MOTION_DOT":6.986e-5,"MEAN_MOTION_DDOT":0},{"OBJECT_NAME":"HJ-2F","OBJECT_ID":"2023-116A","EPOCH":"2026-03-07T15:33:04.188096","MEAN_MOTION":15.20726992,"ECCENTRICITY":0.00102883,"INCLINATION":97.388,"RA_OF_ASC_NODE":73.7356,"ARG_OF_PERICENTER":47.7228,"MEAN_ANOMALY":312.4878,"EPHEMERIS_TYPE":0,"CLASSIFICATION_TYPE":"U","NORAD_CAT_ID":57519,"ELEMENT_SET_NO":999,"REV_AT_EPOCH":14331,"BSTAR":0.00058504776,"MEAN_MOTION_DOT":0.00012831,"MEAN_MOTION_DDOT":0},{"OBJECT_NAME":"XRISM","OBJECT_ID":"2023-137A","EPOCH":"2026-03-07T07:54:11.238336","MEAN_MOTION":15.11468795,"ECCENTRICITY":0.00080863,"INCLINATION":31.0025,"RA_OF_ASC_NODE":298.9308,"ARG_OF_PERICENTER":14.076,"MEAN_ANOMALY":346.0103,"EPHEMERIS_TYPE":0,"CLASSIFICATION_TYPE":"U","NORAD_CAT_ID":57800,"ELEMENT_SET_NO":999,"REV_AT_EPOCH":13743,"BSTAR":0.00044948179,"MEAN_MOTION_DOT":7.898e-5,"MEAN_MOTION_DDOT":0},{"OBJECT_NAME":"METEOR-M2 4","OBJECT_ID":"2024-039A","EPOCH":"2026-03-07T14:37:14.759904","MEAN_MOTION":14.22416808,"ECCENTRICITY":0.00081492,"INCLINATION":98.6905,"RA_OF_ASC_NODE":27.2462,"ARG_OF_PERICENTER":101.5166,"MEAN_ANOMALY":258.6928,"EPHEMERIS_TYPE":0,"CLASSIFICATION_TYPE":"U","NORAD_CAT_ID":59051,"ELEMENT_SET_NO":999,"REV_AT_EPOCH":10482,"BSTAR":5.4220206e-5,"MEAN_MOTION_DOT":7.7e-7,"MEAN_MOTION_DDOT":0},{"OBJECT_NAME":"GRBBETA","OBJECT_ID":"2024-128C","EPOCH":"2026-03-07T15:33:57.415680","MEAN_MOTION":15.05763005,"ECCENTRICITY":0.00516156,"INCLINATION":61.9902,"RA_OF_ASC_NODE":212.2887,"ARG_OF_PERICENTER":113.7049,"MEAN_ANOMALY":246.9471,"EPHEMERIS_TYPE":0,"CLASSIFICATION_TYPE":"U","NORAD_CAT_ID":60237,"ELEMENT_SET_NO":999,"REV_AT_EPOCH":9097,"BSTAR":0.00056577892,"MEAN_MOTION_DOT":8.275e-5,"MEAN_MOTION_DDOT":0},{"OBJECT_NAME":"TRANSPORTER-11 OBJECT A","OBJECT_ID":"2024-149A","EPOCH":"2026-03-07T04:44:36.305952","MEAN_MOTION":15.31071518,"ECCENTRICITY":0.00028554,"INCLINATION":97.3784,"RA_OF_ASC_NODE":146.5588,"ARG_OF_PERICENTER":199.4256,"MEAN_ANOMALY":160.6877,"EPHEMERIS_TYPE":0,"CLASSIFICATION_TYPE":"U","NORAD_CAT_ID":60468,"ELEMENT_SET_NO":999,"REV_AT_EPOCH":8644,"BSTAR":0.00035928428,"MEAN_MOTION_DOT":0.00010713,"MEAN_MOTION_DDOT":0},{"OBJECT_NAME":"WARATAH SEED-1","OBJECT_ID":"2024-149B","EPOCH":"2026-03-07T10:58:35.888448","MEAN_MOTION":15.3321733,"ECCENTRICITY":0.00017431,"INCLINATION":97.3739,"RA_OF_ASC_NODE":147.1202,"ARG_OF_PERICENTER":184.4754,"MEAN_ANOMALY":175.6473,"EPHEMERIS_TYPE":0,"CLASSIFICATION_TYPE":"U","NORAD_CAT_ID":60469,"ELEMENT_SET_NO":999,"REV_AT_EPOCH":8651,"BSTAR":0.00061663916,"MEAN_MOTION_DOT":0.00019742,"MEAN_MOTION_DDOT":0},{"OBJECT_NAME":"PHISAT 2","OBJECT_ID":"2024-149C","EPOCH":"2026-03-07T11:57:56.868768","MEAN_MOTION":15.2950069,"ECCENTRICITY":0.00010125,"INCLINATION":97.3807,"RA_OF_ASC_NODE":146.3763,"ARG_OF_PERICENTER":170.8438,"MEAN_ANOMALY":189.2821,"EPHEMERIS_TYPE":0,"CLASSIFICATION_TYPE":"U","NORAD_CAT_ID":60470,"ELEMENT_SET_NO":999,"REV_AT_EPOCH":8644,"BSTAR":0.00038669872,"MEAN_MOTION_DOT":0.00010988,"MEAN_MOTION_DDOT":0},{"OBJECT_NAME":"LEMUR-2-TOMATOKECHUP","OBJECT_ID":"2024-149D","EPOCH":"2026-03-07T11:22:35.810112","MEAN_MOTION":15.3368471,"ECCENTRICITY":0.00012751,"INCLINATION":97.3844,"RA_OF_ASC_NODE":148.4167,"ARG_OF_PERICENTER":190.3061,"MEAN_ANOMALY":169.8156,"EPHEMERIS_TYPE":0,"CLASSIFICATION_TYPE":"U","NORAD_CAT_ID":60471,"ELEMENT_SET_NO":999,"REV_AT_EPOCH":8656,"BSTAR":0.00053541245,"MEAN_MOTION_DOT":0.00017379,"MEAN_MOTION_DDOT":0},{"OBJECT_NAME":"CONNECTA IOT-1","OBJECT_ID":"2024-149E","EPOCH":"2026-03-07T04:52:23.562336","MEAN_MOTION":15.22880777,"ECCENTRICITY":3.78e-5,"INCLINATION":97.3821,"RA_OF_ASC_NODE":144.2477,"ARG_OF_PERICENTER":272.5444,"MEAN_ANOMALY":87.5749,"EPHEMERIS_TYPE":0,"CLASSIFICATION_TYPE":"U","NORAD_CAT_ID":60472,"ELEMENT_SET_NO":999,"REV_AT_EPOCH":8627,"BSTAR":0.00028078,"MEAN_MOTION_DOT":6.51e-5,"MEAN_MOTION_DDOT":0},{"OBJECT_NAME":"LOPEN","OBJECT_ID":"2024-149F","EPOCH":"2026-03-07T10:49:02.563104","MEAN_MOTION":15.36529888,"ECCENTRICITY":6.361e-5,"INCLINATION":97.3817,"RA_OF_ASC_NODE":149.2433,"ARG_OF_PERICENTER":195.3812,"MEAN_ANOMALY":164.7413,"EPHEMERIS_TYPE":0,"CLASSIFICATION_TYPE":"U","NORAD_CAT_ID":60473,"ELEMENT_SET_NO":999,"REV_AT_EPOCH":8662,"BSTAR":0.00066516577,"MEAN_MOTION_DOT":0.00023678,"MEAN_MOTION_DDOT":0},{"OBJECT_NAME":"ROCK","OBJECT_ID":"2024-149G","EPOCH":"2026-03-07T04:15:19.209888","MEAN_MOTION":15.36533052,"ECCENTRICITY":9.953e-5,"INCLINATION":97.3818,"RA_OF_ASC_NODE":148.9889,"ARG_OF_PERICENTER":206.2306,"MEAN_ANOMALY":153.8888,"EPHEMERIS_TYPE":0,"CLASSIFICATION_TYPE":"U","NORAD_CAT_ID":60474,"ELEMENT_SET_NO":999,"REV_AT_EPOCH":8658,"BSTAR":0.0005415469,"MEAN_MOTION_DOT":0.00019253,"MEAN_MOTION_DDOT":0},{"OBJECT_NAME":"CONNECTA IOT-3","OBJECT_ID":"2024-149H","EPOCH":"2026-03-07T13:17:31.887456","MEAN_MOTION":15.22928491,"ECCENTRICITY":0.00015403,"INCLINATION":97.3794,"RA_OF_ASC_NODE":144.3764,"ARG_OF_PERICENTER":248.0181,"MEAN_ANOMALY":112.0892,"EPHEMERIS_TYPE":0,"CLASSIFICATION_TYPE":"U","NORAD_CAT_ID":60475,"ELEMENT_SET_NO":999,"REV_AT_EPOCH":8633,"BSTAR":0.00030465309,"MEAN_MOTION_DOT":7.08e-5,"MEAN_MOTION_DDOT":0},{"OBJECT_NAME":"QUBE","OBJECT_ID":"2024-149J","EPOCH":"2026-03-07T11:27:25.718400","MEAN_MOTION":15.42304957,"ECCENTRICITY":0.00017338,"INCLINATION":97.3816,"RA_OF_ASC_NODE":151.3109,"ARG_OF_PERICENTER":204.9633,"MEAN_ANOMALY":155.1531,"EPHEMERIS_TYPE":0,"CLASSIFICATION_TYPE":"U","NORAD_CAT_ID":60476,"ELEMENT_SET_NO":999,"REV_AT_EPOCH":8676,"BSTAR":0.00085276913,"MEAN_MOTION_DOT":0.0003676,"MEAN_MOTION_DDOT":0},{"OBJECT_NAME":"WREN-1","OBJECT_ID":"2024-149L","EPOCH":"2026-03-07T05:14:47.571360","MEAN_MOTION":15.37326471,"ECCENTRICITY":0.0003515,"INCLINATION":97.3808,"RA_OF_ASC_NODE":149.5624,"ARG_OF_PERICENTER":260.4294,"MEAN_ANOMALY":99.6554,"EPHEMERIS_TYPE":0,"CLASSIFICATION_TYPE":"U","NORAD_CAT_ID":60478,"ELEMENT_SET_NO":999,"REV_AT_EPOCH":8663,"BSTAR":0.00084624,"MEAN_MOTION_DOT":0.00030962,"MEAN_MOTION_DDOT":0}]
