FENGYUN 3F              
1 57490U 23111A   26066.64446255  .00000100  00000+0  67406-4 0  9996
2 57490  98.6932 138.5105 0001286  80.7747 279.3575 14.19918940134458
METEOR 2-1 DEB          
1 57492U 75064F   26064.80675363  .00006986  00000+0  27882-2 0  9992
2 57492  81.2671 102.6998 0007298  50.0105 310.1716 14.28402345388221
HJ-2F                   
1 57519U 23116A   26066.64796514  .00012831  00000+0  58505-3 0  9992
2 57519  97.3880  73.7356 0010288  47.7228 312.4878 15.20726992143312
XRISM                   
1 57800U 23137A   26066.32929674  .00007898  00000+0  44948-3 0  9991
2 57800  31.0025 298.9308 0008086  14.0760 346.0103 15.11468795137434
METEOR-M2 4             
1 59051U 24039A   26066.60919861  .00000077  00000+0  54220-4 0  9998
2 59051  98.6905  27.2462 0008149 101.5166 258.6928 14.22416808104825
GRBBETA                 
1 60237U 24128C   26066.64858120  .00008275  00000+0  56578-3 0  9994
2 60237  61.9902 212.2887 0051615 113.7049 246.9471 15.05763005 90970
TRANSPORTER-11 OBJECT A 
1 60468U 24149A   26066.19764243  .00010713  00000+0  35928-3 0  9991
2 60468  97.3784 146.5588 0002855 199.4256 160.6877 15.31071518 86446
WARATAH SEED-1          
1 60469U 24149B   26066.45735982  .00019742  00000+0  61664-3 0  9996
2 60469  97.3739 147.1202 0001743 184.4754 175.6473 15.33217330 86511
PHISAT 2                
1 60470U 24149C   26066.49857487  .00010988  00000+0  38670-3 0  9991
2 60470  97.3807 146.3763 0001012 170.8438 189.2821 15.29500690 86448
LEMUR-2-TOMATOKECHUP    
1 60471U 24149D   26066.47402558  .00017379  00000+0  53541-3 0  9990
2 60471  97.3844 148.4167 0001275 190.3061 169.8156 15.33684710 86560
CONNECTA IOT-1          
1 60472U 24149E   26066.20305049  .00006510  00000+0  28078-3 0  9991
2 60472  97.3821 144.2477 0000378 272.5444  87.5749 15.22880777 86276
LOPEN                   
1 60473U 24149F   26066.45072411  .00023678  00000+0  66517-3 0  9997
2 60473  97.3817 149.2433 0000636 195.3812 164.7413 15.36529888 86620
ROCK                    
1 60474U 24149G   26066.17730567  .00019253  00000+0  54155-3 0  9999
2 60474  97.3818 148.9889 0000995 206.2306 153.8888 15.36533052 86589
CONNECTA IOT-3          
1 60475U 24149H   26066.55384129  .00007080  00000+0  30465-3 0  9994
2 60475  97.3794 144.3764 0001540 248.0181 112.0892 15.22928491 86332
QUBE                    
1 60476U 24149J   26066.47738100  .00036760  00000+0  85277-3 0  9996
2 60476  97.3816 151.3109 0001733 204.9633 155.1531 15.42304957 86768
WREN-1                  
1 60478U 24149L   26066.21860615  .00030962  00000+0  84624-3 0  9990
2 60478  97.3808 149.5624 0003515 260.4294  99.6554 15.37326471 86634
